{"type": "FeatureCollection", "features": [ {"type": "Feature", "properties": {"norad_id": 30811, "name": "FENGYUN 1C DEB", "group": "fengyun-1c-debris", "lat": 76.10094634254465, "lon": -123.34647223831223, "alt_km": 843.2635847169695, "timestamp": "2025-12-03T17:47:50.996316+00:00", "meta": {"OBJECT_NAME": "FENGYUN 1C DEB", "OBJECT_ID": "1999-025AUV", "EPOCH": "2025-12-02T14:52:38.800128", "MEAN_MOTION": 13.6179577, "ECCENTRICITY": 0.02791102, "INCLINATION": 98.7833, "RA_OF_ASC_NODE": 16.9774, "ARG_OF_PERICENTER": 72.6748, "MEAN_ANOMALY": 290.4722, "EPHEMERIS_TYPE": 0, "CLASSIFICATION_TYPE": "U", "NORAD_CAT_ID": 30811, "ELEMENT_SET_NO": 999, "REV_AT_EPOCH": 92729, "BSTAR": 0.0021803922, "MEAN_MOTION_DOT": 2.136e-05, "MEAN_MOTION_DDOT": 0}, "tle": {"line1": "1 30811U 99025AUV 25336.61989352  .00002136  00000+0  21804-2 0  9998", "line2": "2 30811  98.7833  16.9774 0279110  72.6748 290.4722 13.61795770927292"}}, "geometry": {"type": "Point", "coordinates": [-123.34647223831223, 76.10094634254465]}}, {"type": "Feature", "properties": {"norad_id": 30814, "name": "FENGYUN 1C DEB", "group": "fengyun-1c-debris", "lat": -26.839080536751464, "lon": 128.64251966846481, "alt_km": 686.3670200105144, "timestamp": "2025-12-03T17:47:50.996326+00:00", "meta": {"OBJECT_NAME": "FENGYUN 1C DEB", "OBJECT_ID": "1999-025AUY", "EPOCH": "2025-12-03T04:17:15.188064", "MEAN_MOTION": 14.59987079, "ECCENTRICITY": 0.0030944, "INCLINATION": 99.0811, "RA_OF_ASC_NODE": 312.6685, "ARG_OF_PERICENTER": 264.1778, "MEAN_ANOMALY": 226.2464, "EPHEMERIS_TYPE": 0, "CLASSIFICATION_TYPE": "U", "NORAD_CAT_ID": 30814, "ELEMENT_SET_NO": 999, "REV_AT_EPOCH": 97602, "BSTAR": 0.0040445, "MEAN_MOTION_DOT": 0.0001953, "MEAN_MOTION_DDOT": 0}, "tle": {"line1": "1 30814U 99025AUY 25337.17864801  .00019530  00000+0  40445-2 0  9992", "line2": "2 30814  99.0811 312.6685 0030944 264.1778 226.2464 14.59987079976021"}}, "geometry": {"type": "Point", "coordinates": [128.64251966846481, -26.839080536751464]}}, {"type": "Feature", "properties": {"norad_id": 30815, "name": "FENGYUN 1C DEB", "group": "fengyun-1c-debris", "lat": 8.493122887533728, "lon": -46.2512259256392, "alt_km": 654.0885469452915, "timestamp": "2025-12-03T17:47:50.996337+00:00", "meta": {"OBJECT_NAME": "FENGYUN 1C DEB", "OBJECT_ID": "1999-025AUZ", "EPOCH": "2025-11-30T09:15:26.568288", "MEAN_MOTION": 14.72583918, "ECCENTRICITY": 0.00021035, "INCLINATION": 99.3008, "RA_OF_ASC_NODE": 128.5096, "ARG_OF_PERICENTER": 274.3036, "MEAN_ANOMALY": 115.8666, "EPHEMERIS_TYPE": 0, "CLASSIFICATION_TYPE": "U", "NORAD_CAT_ID": 30815, "ELEMENT_SET_NO": 999, "REV_AT_EPOCH": 97598, "BSTAR": 0.0044563323, "MEAN_MOTION_DOT": 0.00028405, "MEAN_MOTION_DDOT": 0}, "tle": {"line1": "1 30815U 99025AUZ 25334.38572417  .00028405  00000+0  44563-2 0  9998", "line2": "2 30815  99.3008 128.5096 0002103 274.3036 115.8666 14.72583918975989"}}, "geometry": {"type": "Point", "coordinates": [-46.2512259256392, 8.493122887533728]}}, {"type": "Feature", "properties": {"norad_id": 30816, "name": "FENGYUN 1C DEB", "group": "fengyun-1c-debris", "lat": 42.38762552145727, "lon": -123.57598783751216, "alt_km": 807.0996109329753, "timestamp": "2025-12-03T17:47:50.996347+00:00", "meta": {"OBJECT_NAME": "FENGYUN 1C DEB", "OBJECT_ID": "1999-025AVA", "EPOCH": "2025-12-03T03:51:44.586144", "MEAN_MOTION": 14.17907406, "ECCENTRICITY": 0.00531485, "INCLINATION": 98.9162, "RA_OF_ASC_NODE": 47.6032, "ARG_OF_PERICENTER": 82.9528, "MEAN_ANOMALY": 331.2803, "EPHEMERIS_TYPE": 0, "CLASSIFICATION_TYPE": "U", "NORAD_CAT_ID": 30816, "ELEMENT_SET_NO": 999, "REV_AT_EPOCH": 96258, "BSTAR": 0.0021974002, "MEAN_MOTION_DOT": 4.513e-05, "MEAN_MOTION_DDOT": 0}, "tle": {"line1": "1 30816U 99025AVA 25337.16093271  .00004513  00000+0  21974-2 0  9999", "line2": "2 30816  98.9162  47.6032 0053148  82.9528 331.2803 14.17907406962581"}}, "geometry": {"type": "Point", "coordinates": [-123.57598783751216, 42.38762552145727]}}, {"type": "Feature", "properties": {"norad_id": 30817, "name": "FENGYUN 1C DEB", "group": "fengyun-1c-debris", "lat": 57.62059398589725, "lon": -45.8167722376065, "alt_km": 921.1872803396927, "timestamp": "2025-12-03T17:47:50.996357+00:00", "meta": {"OBJECT_NAME": "FENGYUN 1C DEB", "OBJECT_ID": "1999-025AVB", "EPOCH": "2025-12-03T10:39:33.340032", "MEAN_MOTION": 14.00708437, "ECCENTRICITY": 0.0057357, "INCLINATION": 98.7858, "RA_OF_ASC_NODE": 328.0132, "ARG_OF_PERICENTER": 271.2432, "MEAN_ANOMALY": 88.2163, "EPHEMERIS_TYPE": 0, "CLASSIFICATION_TYPE": "U", "NORAD_CAT_ID": 30817, "ELEMENT_SET_NO": 999, "REV_AT_EPOCH": 95779, "BSTAR": 0.00039231, "MEAN_MOTION_DOT": 5.5e-06, "MEAN_MOTION_DDOT": 0}, "tle": {"line1": "1 30817U 99025AVB 25337.44413588  .00000550  00000+0  39231-3 0  9991", "line2": "2 30817  98.7858 328.0132 0057357 271.2432  88.2163 14.00708437957792"}}, "geometry": {"type": "Point", "coordinates": [-45.8167722376065, 57.62059398589725]}}, {"type": "Feature", "properties": {"norad_id": 30820, "name": "FENGYUN 1C DEB", "group": "fengyun-1c-debris", "lat": -23.614205388944537, "lon": 78.02388927948218, "alt_km": 847.147091494141, "timestamp": "2025-12-03T17:47:50.996367+00:00", "meta": {"OBJECT_NAME": "FENGYUN 1C DEB", "OBJECT_ID": "1999-025AVE", "EPOCH": "2025-12-01T05:13:35.130144", "MEAN_MOTION": 14.21242439, "ECCENTRICITY": 0.0051773, "INCLINATION": 98.6766, "RA_OF_ASC_NODE": 71.7167, "ARG_OF_PERICENTER": 219.591, "MEAN_ANOMALY": 170.3692, "EPHEMERIS_TYPE": 0, "CLASSIFICATION_TYPE": "U", "NORAD_CAT_ID": 30820, "ELEMENT_SET_NO": 999, "REV_AT_EPOCH": 96260, "BSTAR": 0.002337, "MEAN_MOTION_DOT": 5.118e-05, "MEAN_MOTION_DDOT": 0}, "tle": {"line1": "1 30820U 99025AVE 25335.21776771  .00005118  00000+0  23370-2 0  9995", "line2": "2 30820  98.6766  71.7167 0051773 219.5910 170.3692 14.21242439962609"}}, "geometry": {"type": "Point", "coordinates": [78.02388927948218, -23.614205388944537]}}, {"type": "Feature", "properties": {"norad_id": 30821, "name": "FENGYUN 1C DEB", "group": "fengyun-1c-debris", "lat": -10.667647944307058, "lon": -62.12900063676221, "alt_km": 685.7333856903251, "timestamp": "2025-12-03T17:47:50.996377+00:00", "meta": {"OBJECT_NAME": "FENGYUN 1C DEB", "OBJECT_ID": "1999-025AVF", "EPOCH": "2025-12-01T08:43:29.259840", "MEAN_MOTION": 14.49523426, "ECCENTRICITY": 0.00862987, "INCLINATION": 99.1021, "RA_OF_ASC_NODE": 117.0363, "ARG_OF_PERICENTER": 240.0336, "MEAN_ANOMALY": 149.0962, "EPHEMERIS_TYPE": 0, "CLASSIFICATION_TYPE": "U", "NORAD_CAT_ID": 30821, "ELEMENT_SET_NO": 999, "REV_AT_EPOCH": 98624, "BSTAR": 0.0010654422, "MEAN_MOTION_DOT": 4.23e-05, "MEAN_MOTION_DDOT": 0}, "tle": {"line1": "1 30821U 99025AVF 25335.36353310  .00004230  00000+0  10654-2 0  9997", "line2": "2 30821  99.1021 117.0363 0086298 240.0336 149.0962 14.49523426986240"}}, "geometry": {"type": "Point", "coordinates": [-62.12900063676221, -10.667647944307058]}}, {"type": "Feature", "properties": {"norad_id": 30822, "name": "FENGYUN 1C DEB", "group": "fengyun-1c-debris", "lat": -79.46422632413892, "lon": 130.27548474422278, "alt_km": 825.8745612155672, "timestamp": "2025-12-03T17:47:50.996387+00:00", "meta": {"OBJECT_NAME": "FENGYUN 1C DEB", "OBJECT_ID": "1999-025AVG", "EPOCH": "2025-12-03T08:08:01.868928", "MEAN_MOTION": 14.11322281, "ECCENTRICITY": 0.0073301, "INCLINATION": 98.7366, "RA_OF_ASC_NODE": 5.6551, "ARG_OF_PERICENTER": 312.3393, "MEAN_ANOMALY": 67.7213, "EPHEMERIS_TYPE": 0, "CLASSIFICATION_TYPE": "U", "NORAD_CAT_ID": 30822, "ELEMENT_SET_NO": 999, "REV_AT_EPOCH": 96569, "BSTAR": 0.00046053, "MEAN_MOTION_DOT": 8.1e-06, "MEAN_MOTION_DDOT": 0}, "tle": {"line1": "1 30822U 99025AVG 25337.33891052  .00000810  00000+0  46053-3 0  9990", "line2": "2 30822  98.7366   5.6551 0073301 312.3393  67.7213 14.11322281965692"}}, "geometry": {"type": "Point", "coordinates": [130.27548474422278, -79.46422632413892]}}, {"type": "Feature", "properties": {"norad_id": 30823, "name": "FENGYUN 1C DEB", "group": "fengyun-1c-debris", "lat": -72.94647477449631, "lon": 149.27011744088406, "alt_km": 989.3812521725158, "timestamp": "2025-12-03T17:47:50.996397+00:00", "meta": {"OBJECT_NAME": "FENGYUN 1C DEB", "OBJECT_ID": "1999-025AVH", "EPOCH": "2025-12-02T22:13:04.439712", "MEAN_MOTION": 14.02530933, "ECCENTRICITY": 0.01341286, "INCLINATION": 98.7611, "RA_OF_ASC_NODE": 118.3054, "ARG_OF_PERICENTER": 111.9391, "MEAN_ANOMALY": 15.7733, "EPHEMERIS_TYPE": 0, "CLASSIFICATION_TYPE": "U", "NORAD_CAT_ID": 30823, "ELEMENT_SET_NO": 999, "REV_AT_EPOCH": 95896, "BSTAR": 0.00074109072, "MEAN_MOTION_DOT": 1.194e-05, "MEAN_MOTION_DDOT": 0}, "tle": {"line1": "1 30823U 99025AVH 25336.92574583  .00001194  00000+0  74109-3 0  9991", "line2": "2 30823  98.7611 118.3054 0134128 111.9391  15.7733 14.02530933958969"}}, "geometry": {"type": "Point", "coordinates": [149.27011744088406, -72.94647477449631]}}, {"type": "Feature", "properties": {"norad_id": 30826, "name": "FENGYUN 1C DEB", "group": "fengyun-1c-debris", "lat": -8.855016634538282, "lon": 173.17496931981663, "alt_km": 541.6291568589813, "timestamp": "2025-12-03T17:47:50.996407+00:00", "meta": {"OBJECT_NAME": "FENGYUN 1C DEB", "OBJECT_ID": "1999-025AVL", "EPOCH": "2025-12-03T07:17:45.376224", "MEAN_MOTION": 14.8209274, "ECCENTRICITY": 0.0146116, "INCLINATION": 98.8673, "RA_OF_ASC_NODE": 171.2968, "ARG_OF_PERICENTER": 26.6766, "MEAN_ANOMALY": 152.1532, "EPHEMERIS_TYPE": 0, "CLASSIFICATION_TYPE": "U", "NORAD_CAT_ID": 30826, "ELEMENT_SET_NO": 999, "REV_AT_EPOCH": 146, "BSTAR": 0.00061573, "MEAN_MOTION_DOT": 5.826e-05, "MEAN_MOTION_DDOT": 0}, "tle": {"line1": "1 30826U 99025AVL 25337.30399741  .00005826  00000+0  61573-3 0  9995", "line2": "2 30826  98.8673 171.2968 0146116  26.6766 152.1532 14.82092740  1465"}}, "geometry": {"type": "Point", "coordinates": [173.17496931981663, -8.855016634538282]}}]}